CTC1_L_00052001-01
1 10000U 22060DB  26075.70030093  .00000000  00000+0  00000-0 0  9992
2 10000  80.0000   0.0000 0000000   0.0000   0.0000 15.08756051    10
CTC1_L_00052001-02
1 10001U 25885UZ  26075.70030093  .00000000  00000+0  00000-0 0  9991
2 10001  80.0000   0.0000 0000000   0.0000  90.0000 15.08756051    10
CTC1_L_00052001-03
1 10002U 22153DL  26075.70030093  .00000000  00000+0  00000-0 0  9997
2 10002  80.0000   0.0000 0000000   0.0000 180.0000 15.08756051    11
CTC1_L_00052001-04
1 10003U 24294CM  26075.70030093  .00000000  00000+0  00000-0 0  9996
2 10003  80.0000   0.0000 0000000   0.0000 270.0000 15.08756051    12
CTC1_L_00052002-01
1 10004U 22401ME  26075.70030093  .00000000  00000+0  00000-0 0  9995
2 10004  80.0000  12.0000 0000000   0.0000  12.0000 15.08756051    10
CTC1_L_00052002-02
1 10005U 23092TO  26075.70030093  .00000000  00000+0  00000-0 0  9993
2 10005  80.0000  12.0000 0000000   0.0000 102.0000 15.08756051    11
CTC1_L_00052002-03
1 10006U 26162OS  26075.70030093  .00000000  00000+0  00000-0 0  9995
2 10006  80.0000  12.0000 0000000   0.0000 192.0000 15.08756051    11
CTC1_L_00052002-04
1 10007U 24606XC  26075.70030093  .00000000  00000+0  00000-0 0  9997
2 10007  80.0000  12.0000 0000000   0.0000 282.0000 15.08756051    12
CTC1_L_00052003-01
1 10008U 23019QP  26075.70030093  .00000000  00000+0  00000-0 0  9995
2 10008  80.0000  24.0000 0000000   0.0000  24.0000 15.08756051    10
CTC1_L_00052003-02
1 10009U 22656LX  26075.70030093  .00000000  00000+0  00000-0 0  9992
2 10009  80.0000  24.0000 0000000   0.0000 114.0000 15.08756051    11
CTC1_L_00052003-03
1 10010U 25748NU  26075.70030093  .00000000  00000+0  00000-0 0  9999
2 10010  80.0000  24.0000 0000000   0.0000 204.0000 15.08756051    13
CTC1_L_00052003-04
1 10011U 26659IO  26075.70030093  .00000000  00000+0  00000-0 0  9992
2 10011  80.0000  24.0000 0000000   0.0000 294.0000 15.08756051    13
CTC1_L_00052004-01
1 10012U 26240QV  26075.70030093  .00000000  00000+0  00000-0 0  9999
2 10012  80.0000  36.0000 0000000   0.0000  36.0000 15.08756051    11
CTC1_L_00052004-02
1 10013U 22553CK  26075.70030093  .00000000  00000+0  00000-0 0  9993
2 10013  80.0000  36.0000 0000000   0.0000 126.0000 15.08756051    12
CTC1_L_00052004-03
1 10014U 26468TB  26075.70030093  .00000000  00000+0  00000-0 0  9993
2 10014  80.0000  36.0000 0000000   0.0000 216.0000 15.08756051    13
CTC1_L_00052004-04
1 10015U 25379FT  26075.70030093  .00000000  00000+0  00000-0 0  9994
2 10015  80.0000  36.0000 0000000   0.0000 306.0000 15.08756051    14
CTC1_L_00052005-01
1 10016U 22234NT  26075.70030093  .00000000  00000+0  00000-0 0  9992
2 10016  80.0000  48.0000 0000000   0.0000  48.0000 15.08756051    11
CTC1_L_00052005-02
1 10017U 24806KP  26075.70030093  .00000000  00000+0  00000-0 0  9990
2 10017  80.0000  48.0000 0000000   0.0000 138.0000 15.08756051    12
CTC1_L_00052005-03
1 10018U 23903MO  26075.70030093  .00000000  00000+0  00000-0 0  9998
2 10018  80.0000  48.0000 0000000   0.0000 228.0000 15.08756051    13
CTC1_L_00052005-04
1 10019U 26391CB  26075.70030093  .00000000  00000+0  00000-0 0  9993
2 10019  80.0000  48.0000 0000000   0.0000 318.0000 15.08756051    14
CTC1_L_00052006-01
1 10020U 24677MP  26075.70030093  .00000000  00000+0  00000-0 0  9990
2 10020  80.0000  60.0000 0000000   0.0000  60.0000 15.08756051    14
CTC1_L_00052006-02
1 10021U 25251VU  26075.70030093  .00000000  00000+0  00000-0 0  9990
2 10021  80.0000  60.0000 0000000   0.0000 150.0000 15.08756051    15
CTC1_L_00052006-03
1 10022U 22651JB  26075.70030093  .00000000  00000+0  00000-0 0  9992
2 10022  80.0000  60.0000 0000000   0.0000 240.0000 15.08756051    16
CTC1_L_00052006-04
1 10023U 24722KV  26075.70030093  .00000000  00000+0  00000-0 0  9994
2 10023  80.0000  60.0000 0000000   0.0000 330.0000 15.08756051    17
CTC1_L_00052007-01
1 10024U 22325VZ  26075.70030093  .00000000  00000+0  00000-0 0  9992
2 10024  80.0000  72.0000 0000000   0.0000  72.0000 15.08756051    14
CTC1_L_00052007-02
1 10025U 26729KN  26075.70030093  .00000000  00000+0  00000-0 0  9995
2 10025  80.0000  72.0000 0000000   0.0000 162.0000 15.08756051    15
CTC1_L_00052007-03
1 10026U 23930PN  26075.70030093  .00000000  00000+0  00000-0 0  9997
2 10026  80.0000  72.0000 0000000   0.0000 252.0000 15.08756051    16
CTC1_L_00052007-04
1 10027U 22418WZ  26075.70030093  .00000000  00000+0  00000-0 0  9998
2 10027  80.0000  72.0000 0000000   0.0000 342.0000 15.08756051    17
CTC1_L_00052008-01
1 10028U 23541VK  26075.70030093  .00000000  00000+0  00000-0 0  9997
2 10028  80.0000  84.0000 0000000   0.0000  84.0000 15.08756051    14
CTC1_L_00052008-02
1 10029U 22771PS  26075.70030093  .00000000  00000+0  00000-0 0  9992
2 10029  80.0000  84.0000 0000000   0.0000 174.0000 15.08756051    15
CTC1_L_00052008-03
1 10030U 25386NB  26075.70030093  .00000000  00000+0  00000-0 0  9999
2 10030  80.0000  84.0000 0000000   0.0000 264.0000 15.08756051    17
CTC1_L_00052008-04
1 10031U 25749SY  26075.70030093  .00000000  00000+0  00000-0 0  9993
2 10031  80.0000  84.0000 0000000   0.0000 354.0000 15.08756051    18
CTC1_L_00052009-01
1 10032U 25223VB  26075.70030093  .00000000  00000+0  00000-0 0  9991
2 10032  80.0000  96.0000 0000000   0.0000  96.0000 15.08756051    15
CTC1_L_00052009-02
1 10033U 26987SN  26075.70030093  .00000000  00000+0  00000-0 0  9990
2 10033  80.0000  96.0000 0000000   0.0000 186.0000 15.08756051    16
CTC1_L_00052009-03
1 10034U 22117TD  26075.70030093  .00000000  00000+0  00000-0 0  9992
2 10034  80.0000  96.0000 0000000   0.0000 276.0000 15.08756051    17
CTC1_L_00052009-04
1 10035U 26388GX  26075.70030093  .00000000  00000+0  00000-0 0  9997
2 10035  80.0000  96.0000 0000000   0.0000   6.0000 15.08756051    19
CTC1_L_00052010-01
1 10036U 22781YA  26075.70030093  .00000000  00000+0  00000-0 0  9991
2 10036  80.0000 108.0000 0000000   0.0000 108.0000 15.08756051    17
CTC1_L_00052010-02
1 10037U 22368MU  26075.70030093  .00000000  00000+0  00000-0 0  9993
2 10037  80.0000 108.0000 0000000   0.0000 198.0000 15.08756051    17
CTC1_L_00052010-03
1 10038U 22466UH  26075.70030093  .00000000  00000+0  00000-0 0  9993
2 10038  80.0000 108.0000 0000000   0.0000 288.0000 15.08756051    18
CTC1_L_00052010-04
1 10039U 26619SF  26075.70030093  .00000000  00000+0  00000-0 0  9998
2 10039  80.0000 108.0000 0000000   0.0000  18.0000 15.08756051    10
CTC1_L_00052011-01
1 10040U 22437RW  26075.70030093  .00000000  00000+0  00000-0 0  9994
2 10040  80.0000 120.0000 0000000   0.0000 120.0000 15.08756051    10
CTC1_L_00052011-02
1 10041U 26430WW  26075.70030093  .00000000  00000+0  00000-0 0  9992
2 10041  80.0000 120.0000 0000000   0.0000 210.0000 15.08756051    11
CTC1_L_00052011-03
1 10042U 22797MR  26075.70030093  .00000000  00000+0  00000-0 0  9995
2 10042  80.0000 120.0000 0000000   0.0000 300.0000 15.08756051    12
CTC1_L_00052011-04
1 10043U 22083VR  26075.70030093  .00000000  00000+0  00000-0 0  9994
2 10043  80.0000 120.0000 0000000   0.0000  30.0000 15.08756051    13
CTC1_L_00052012-01
1 10044U 26432PD  26075.70030093  .00000000  00000+0  00000-0 0  9997
2 10044  80.0000 132.0000 0000000   0.0000 132.0000 15.08756051    10
CTC1_L_00052012-02
1 10045U 26686FX  26075.70030093  .00000000  00000+0  00000-0 0  9999
2 10045  80.0000 132.0000 0000000   0.0000 222.0000 15.08756051    11
CTC1_L_00052012-03
1 10046U 25141QC  26075.70030093  .00000000  00000+0  00000-0 0  9995
2 10046  80.0000 132.0000 0000000   0.0000 312.0000 15.08756051    12
CTC1_L_00052012-04
1 10047U 24798ZQ  26075.70030093  .00000000  00000+0  00000-0 0  9993
2 10047  80.0000 132.0000 0000000   0.0000  42.0000 15.08756051    13
CTC1_L_00052013-01
1 10048U 26211RA  26075.70030093  .00000000  00000+0  00000-0 0  9996
2 10048  80.0000 144.0000 0000000   0.0000 144.0000 15.08756051    10
CTC1_L_00052013-02
1 10049U 23591BV  26075.70030093  .00000000  00000+0  00000-0 0  9995
2 10049  80.0000 144.0000 0000000   0.0000 234.0000 15.08756051    11
CTC1_L_00052013-03
1 10050U 23528EI  26075.70030093  .00000000  00000+0  00000-0 0  9997
2 10050  80.0000 144.0000 0000000   0.0000 324.0000 15.08756051    13
CTC1_L_00052013-04
1 10051U 22468MC  26075.70030093  .00000000  00000+0  00000-0 0  9990
2 10051  80.0000 144.0000 0000000   0.0000  54.0000 15.08756051    14
CTC1_L_00052014-01
1 10052U 23906PB  26075.70030093  .00000000  00000+0  00000-0 0  9999
2 10052  80.0000 156.0000 0000000   0.0000 156.0000 15.08756051    11
CTC1_L_00052014-02
1 10053U 26465DN  26075.70030093  .00000000  00000+0  00000-0 0  9993
2 10053  80.0000 156.0000 0000000   0.0000 246.0000 15.08756051    12
CTC1_L_00052014-03
1 10054U 25419SF  26075.70030093  .00000000  00000+0  00000-0 0  9992
2 10054  80.0000 156.0000 0000000   0.0000 336.0000 15.08756051    13
CTC1_L_00052014-04
1 10055U 23985TB  26075.70030093  .00000000  00000+0  00000-0 0  9999
2 10055  80.0000 156.0000 0000000   0.0000  66.0000 15.08756051    14
CTC1_L_00052015-01
1 10056U 23233IZ  26075.70030093  .00000000  00000+0  00000-0 0  9996
2 10056  80.0000 168.0000 0000000   0.0000 168.0000 15.08756051    11
CTC1_L_00052015-02
1 10057U 23583GB  26075.70030093  .00000000  00000+0  00000-0 0  9995
2 10057  80.0000 168.0000 0000000   0.0000 258.0000 15.08756051    12
CTC1_L_00052015-03
1 10058U 22257GP  26075.70030093  .00000000  00000+0  00000-0 0  9993
2 10058  80.0000 168.0000 0000000   0.0000 348.0000 15.08756051    13
CTC1_L_00052015-04
1 10059U 24389BD  26075.70030093  .00000000  00000+0  00000-0 0  9992
2 10059  80.0000 168.0000 0000000   0.0000  78.0000 15.08756051    14
CTC1_L_00052016-01
1 10060U 25223KF  26075.70030093  .00000000  00000+0  00000-0 0  9992
2 10060  80.0000 180.0000 0000000   0.0000 180.0000 15.08756051    14
CTC1_L_00052016-02
1 10061U 26082TG  26075.70030093  .00000000  00000+0  00000-0 0  9997
2 10061  80.0000 180.0000 0000000   0.0000 270.0000 15.08756051    15
